[{"OBJECT_NAME":"HELLAS-SAT 1 (DFS 3)","OBJECT_ID":"1992-066A","EPOCH":"2026-03-03T14:39:38.728224","MEAN_MOTION":0.99734403,"ECCENTRICITY":0.00011931,"INCLINATION":14.1881,"RA_OF_ASC_NODE":7.8471,"ARG_OF_PERICENTER":262.4088,"MEAN_ANOMALY":304.297,"EPHEMERIS_TYPE":0,"CLASSIFICATION_TYPE":"U","NORAD_CAT_ID":22175,"ELEMENT_SET_NO":999,"REV_AT_EPOCH":11949,"BSTAR":0,"MEAN_MOTION_DOT":9.0e-8,"MEAN_MOTION_DDOT":0},{"OBJECT_NAME":"DELTA 2 R/B(2)","OBJECT_ID":"1992-066C","EPOCH":"2026-03-04T03:25:33.394368","MEAN_MOTION":2.18732802,"ECCENTRICITY":0.6859061,"INCLINATION":18.9649,"RA_OF_ASC_NODE":136.9064,"ARG_OF_PERICENTER":157.6497,"MEAN_ANOMALY":266.4573,"EPHEMERIS_TYPE":0,"CLASSIFICATION_TYPE":"U","NORAD_CAT_ID":22177,"ELEMENT_SET_NO":999,"REV_AT_EPOCH":4741,"BSTAR":0,"MEAN_MOTION_DOT":-3.5e-7,"MEAN_MOTION_DDOT":0},{"OBJECT_NAME":"MOLNIYA 3-42","OBJECT_ID":"1992-067A","EPOCH":"2026-03-02T00:40:23.066400","MEAN_MOTION":2.20433669,"ECCENTRICITY":0.69446479,"INCLINATION":64.4639,"RA_OF_ASC_NODE":58.9601,"ARG_OF_PERICENTER":248.3836,"MEAN_ANOMALY":28.3675,"EPHEMERIS_TYPE":0,"CLASSIFICATION_TYPE":"U","NORAD_CAT_ID":22178,"ELEMENT_SET_NO":999,"REV_AT_EPOCH":10989,"BSTAR":0,"MEAN_MOTION_DOT":1.0e-8,"MEAN_MOTION_DDOT":0},{"OBJECT_NAME":"SL-6 R/B(2)","OBJECT_ID":"1992-067D","EPOCH":"2026-02-27T07:26:57.695136","MEAN_MOTION":2.00783502,"ECCENTRICITY":0.67800614,"INCLINATION":64.1258,"RA_OF_ASC_NODE":169.2033,"ARG_OF_PERICENTER":253.4896,"MEAN_ANOMALY":26.939,"EPHEMERIS_TYPE":0,"CLASSIFICATION_TYPE":"U","NORAD_CAT_ID":22181,"ELEMENT_SET_NO":999,"REV_AT_EPOCH":24123,"BSTAR":0,"MEAN_MOTION_DOT":-5.13e-6,"MEAN_MOTION_DDOT":0},{"OBJECT_NAME":"SL-6 R/B(2)","OBJECT_ID":"1992-069D","EPOCH":"2026-03-02T23:15:55.287360","MEAN_MOTION":2.02825123,"ECCENTRICITY":0.65127387,"INCLINATION":68.225,"RA_OF_ASC_NODE":95.726,"ARG_OF_PERICENTER":356.4533,"MEAN_ANOMALY":182.8715,"EPHEMERIS_TYPE":0,"CLASSIFICATION_TYPE":"U","NORAD_CAT_ID":22192,"ELEMENT_SET_NO":999,"REV_AT_EPOCH":24218,"BSTAR":0,"MEAN_MOTION_DOT":5.98e-6,"MEAN_MOTION_DDOT":0},{"OBJECT_NAME":"GALAXY 7 (G-7)","OBJECT_ID":"1992-072A","EPOCH":"2026-03-04T03:37:32.244960","MEAN_MOTION":0.99709479,"ECCENTRICITY":0.0006802,"INCLINATION":14.4781,"RA_OF_ASC_NODE":4.0715,"ARG_OF_PERICENTER":22.1137,"MEAN_ANOMALY":160.2383,"EPHEMERIS_TYPE":0,"CLASSIFICATION_TYPE":"U","NORAD_CAT_ID":22205,"ELEMENT_SET_NO":999,"REV_AT_EPOCH":11583,"BSTAR":0,"MEAN_MOTION_DOT":-2.84e-6,"MEAN_MOTION_DDOT":0},{"OBJECT_NAME":"EKRAN 20","OBJECT_ID":"1992-074A","EPOCH":"2026-03-02T21:11:56.704416","MEAN_MOTION":1.00272139,"ECCENTRICITY":0.00036,"INCLINATION":13.7497,"RA_OF_ASC_NODE":345.0766,"ARG_OF_PERICENTER":235.4546,"MEAN_ANOMALY":308.3062,"EPHEMERIS_TYPE":0,"CLASSIFICATION_TYPE":"U","NORAD_CAT_ID":22210,"ELEMENT_SET_NO":999,"REV_AT_EPOCH":4630,"BSTAR":0,"MEAN_MOTION_DOT":7.6e-7,"MEAN_MOTION_DDOT":0},{"OBJECT_NAME":"SL-12 R/B(2)","OBJECT_ID":"1992-074D","EPOCH":"2026-03-03T03:26:51.746208","MEAN_MOTION":1.01138409,"ECCENTRICITY":0.00195393,"INCLINATION":13.3334,"RA_OF_ASC_NODE":343.5849,"ARG_OF_PERICENTER":147.6288,"MEAN_ANOMALY":222.352,"EPHEMERIS_TYPE":0,"CLASSIFICATION_TYPE":"U","NORAD_CAT_ID":22213,"ELEMENT_SET_NO":999,"REV_AT_EPOCH":12470,"BSTAR":0,"MEAN_MOTION_DOT":-1.38e-6,"MEAN_MOTION_DDOT":0},{"OBJECT_NAME":"SL-6 R/B(2)","OBJECT_ID":"1992-081D","EPOCH":"2026-03-01T14:02:53.026080","MEAN_MOTION":2.03438722,"ECCENTRICITY":0.63717384,"INCLINATION":68.7131,"RA_OF_ASC_NODE":16.1532,"ARG_OF_PERICENTER":19.5865,"MEAN_ANOMALY":356.3736,"EPHEMERIS_TYPE":0,"CLASSIFICATION_TYPE":"U","NORAD_CAT_ID":22241,"ELEMENT_SET_NO":999,"REV_AT_EPOCH":24713,"BSTAR":0,"MEAN_MOTION_DOT":5.32e-6,"MEAN_MOTION_DDOT":0},{"OBJECT_NAME":"GORIZONT 27","OBJECT_ID":"1992-082A","EPOCH":"2026-03-03T00:05:17.608992","MEAN_MOTION":1.00179502,"ECCENTRICITY":0.00124055,"INCLINATION":13.7786,"RA_OF_ASC_NODE":344.762,"ARG_OF_PERICENTER":19.5272,"MEAN_ANOMALY":183.0944,"EPHEMERIS_TYPE":0,"CLASSIFICATION_TYPE":"U","NORAD_CAT_ID":22245,"ELEMENT_SET_NO":999,"REV_AT_EPOCH":12605,"BSTAR":0,"MEAN_MOTION_DOT":9.6e-7,"MEAN_MOTION_DDOT":0},{"OBJECT_NAME":"HIMAWARI-3 AKM","OBJECT_ID":"1984-080E","EPOCH":"2026-03-03T19:22:45.283584","MEAN_MOTION":0.9974904,"ECCENTRICITY":0.01356,"INCLINATION":9.6985,"RA_OF_ASC_NODE":316.8069,"ARG_OF_PERICENTER":108.4401,"MEAN_ANOMALY":61.102,"EPHEMERIS_TYPE":0,"CLASSIFICATION_TYPE":"U","NORAD_CAT_ID":22266,"ELEMENT_SET_NO":999,"REV_AT_EPOCH":11643,"BSTAR":0,"MEAN_MOTION_DOT":3.9e-7,"MEAN_MOTION_DDOT":0},{"OBJECT_NAME":"COSMOS 2224","OBJECT_ID":"1992-088A","EPOCH":"2026-03-03T01:59:51.927360","MEAN_MOTION":1.00254323,"ECCENTRICITY":0.00065799,"INCLINATION":13.6851,"RA_OF_ASC_NODE":348.7272,"ARG_OF_PERICENTER":281.659,"MEAN_ANOMALY":260.2385,"EPHEMERIS_TYPE":0,"CLASSIFICATION_TYPE":"U","NORAD_CAT_ID":22269,"ELEMENT_SET_NO":999,"REV_AT_EPOCH":12102,"BSTAR":0,"MEAN_MOTION_DOT":-1.9e-6,"MEAN_MOTION_DDOT":0},{"OBJECT_NAME":"SL-12 R/B(2)","OBJECT_ID":"1992-088D","EPOCH":"2026-03-04T01:47:38.626368","MEAN_MOTION":1.00076753,"ECCENTRICITY":0.0007964,"INCLINATION":13.7859,"RA_OF_ASC_NODE":349.1854,"ARG_OF_PERICENTER":158.7878,"MEAN_ANOMALY":32.8472,"EPHEMERIS_TYPE":0,"CLASSIFICATION_TYPE":"U","NORAD_CAT_ID":22272,"ELEMENT_SET_NO":999,"REV_AT_EPOCH":4623,"BSTAR":0,"MEAN_MOTION_DOT":-1.31e-6,"MEAN_MOTION_DDOT":0},{"OBJECT_NAME":"TDRS 6","OBJECT_ID":"1993-003B","EPOCH":"2026-03-03T07:14:57.335136","MEAN_MOTION":1.00279152,"ECCENTRICITY":0.00055855,"INCLINATION":14.1806,"RA_OF_ASC_NODE":357.8429,"ARG_OF_PERICENTER":201.1788,"MEAN_ANOMALY":24.7869,"EPHEMERIS_TYPE":0,"CLASSIFICATION_TYPE":"U","NORAD_CAT_ID":22314,"ELEMENT_SET_NO":999,"REV_AT_EPOCH":12134,"BSTAR":0,"MEAN_MOTION_DOT":-3.04e-6,"MEAN_MOTION_DDOT":0},{"OBJECT_NAME":"IUS R/B(2)","OBJECT_ID":"1993-003D","EPOCH":"2026-03-04T00:24:22.193856","MEAN_MOTION":1.00130092,"ECCENTRICITY":0.0067211,"INCLINATION":11.9194,"RA_OF_ASC_NODE":345.1103,"ARG_OF_PERICENTER":122.7576,"MEAN_ANOMALY":72.5824,"EPHEMERIS_TYPE":0,"CLASSIFICATION_TYPE":"U","NORAD_CAT_ID":22316,"ELEMENT_SET_NO":999,"REV_AT_EPOCH":12613,"BSTAR":0,"MEAN_MOTION_DOT":3.0e-7,"MEAN_MOTION_DDOT":0},{"OBJECT_NAME":"RADUGA 29","OBJECT_ID":"1993-013A","EPOCH":"2026-03-03T19:35:14.088192","MEAN_MOTION":1.0038542,"ECCENTRICITY":0.0003012,"INCLINATION":13.8979,"RA_OF_ASC_NODE":345.9,"ARG_OF_PERICENTER":194.4283,"MEAN_ANOMALY":354.3816,"EPHEMERIS_TYPE":0,"CLASSIFICATION_TYPE":"U","NORAD_CAT_ID":22557,"ELEMENT_SET_NO":999,"REV_AT_EPOCH":12062,"BSTAR":0,"MEAN_MOTION_DOT":-1.83e-6,"MEAN_MOTION_DDOT":0},{"OBJECT_NAME":"ARSENE (AO-24)","OBJECT_ID":"1993-031B","EPOCH":"2026-03-04T01:35:28.948128","MEAN_MOTION":1.42202884,"ECCENTRICITY":0.2850368,"INCLINATION":5.1068,"RA_OF_ASC_NODE":50.1121,"ARG_OF_PERICENTER":329.7149,"MEAN_ANOMALY":36.9515,"EPHEMERIS_TYPE":0,"CLASSIFICATION_TYPE":"U","NORAD_CAT_ID":22654,"ELEMENT_SET_NO":999,"REV_AT_EPOCH":16593,"BSTAR":0,"MEAN_MOTION_DOT":-1.45e-6,"MEAN_MOTION_DDOT":0}]
