HELLAS-SAT 1 (DFS 3)    
1 22175U 92066A   26062.61086491  .00000009  00000+0  00000+0 0  9998
2 22175  14.1881   7.8471 0001193 262.4088 304.2970  0.99734403119491
DELTA 2 R/B(2)          
1 22177U 92066C   26063.14274762 -.00000035  00000+0  00000+0 0  9999
2 22177  18.9649 136.9064 6859061 157.6497 266.4573  2.18732802 47413
MOLNIYA 3-42            
1 22178U 92067A   26061.02804475  .00000001  00000+0  00000+0 0  9998
2 22178  64.4639  58.9601 6944647 248.3836  28.3675  2.20433669109890
SL-6 R/B(2)             
1 22181U 92067D   26058.31038999 -.00000513  00000+0  00000+0 0  9999
2 22181  64.1258 169.2033 6780061 253.4896  26.9390  2.00783502241239
SL-6 R/B(2)             
1 22192U 92069D   26061.96938990  .00000598  00000+0  00000+0 0  9990
2 22192  68.2250  95.7260 6512738 356.4533 182.8715  2.02825123242185
GALAXY 7 (G-7)          
1 22205U 92072A   26063.15106765 -.00000284  00000+0  00000+0 0  9992
2 22205  14.4781   4.0715 0006802  22.1137 160.2383  0.99709479115832
EKRAN 20                
1 22210U 92074A   26061.88329519  .00000076  00000+0  00000+0 0  9990
2 22210  13.7497 345.0766 0003600 235.4546 308.3062  1.00272139 46309
SL-12 R/B(2)            
1 22213U 92074D   26062.14365447 -.00000138  00000+0  00000+0 0  9993
2 22213  13.3334 343.5849 0019539 147.6288 222.3520  1.01138409124705
SL-6 R/B(2)             
1 22241U 92081D   26060.58533595  .00000532  00000+0  00000+0 0  9996
2 22241  68.7131  16.1532 6371738  19.5865 356.3736  2.03438722247137
GORIZONT 27             
1 22245U 92082A   26062.00367603  .00000096  00000+0  00000+0 0  9990
2 22245  13.7786 344.7620 0012405  19.5272 183.0944  1.00179502126051
HIMAWARI-3 AKM          
1 22266U 84080E   26062.80746856  .00000039  00000+0  00000+0 0  9998
2 22266   9.6985 316.8069 0135600 108.4401  61.1020  0.99749040116430
COSMOS 2224             
1 22269U 92088A   26062.08323990 -.00000190  00000+0  00000+0 0  9997
2 22269  13.6851 348.7272 0006579 281.6590 260.2385  1.00254323121020
SL-12 R/B(2)            
1 22272U 92088D   26063.07475262 -.00000131  00000+0  00000+0 0  9996
2 22272  13.7859 349.1854 0007964 158.7878  32.8472  1.00076753 46234
TDRS 6                  
1 22314U 93003B   26062.30205249 -.00000304  00000+0  00000+0 0  9994
2 22314  14.1806 357.8429 0005585 201.1788  24.7869  1.00279152121346
IUS R/B(2)              
1 22316U 93003D   26063.01692354  .00000030  00000+0  00000+0 0  9997
2 22316  11.9194 345.1103 0067211 122.7576  72.5824  1.00130092126132
RADUGA 29               
1 22557U 93013A   26062.81613528 -.00000183  00000+0  00000+0 0  9998
2 22557  13.8979 345.9000 0003012 194.4283 354.3816  1.00385420120622
ARSENE (AO-24)          
1 22654U 93031B   26063.06630727 -.00000145  00000+0  00000+0 0  9992
2 22654   5.1068  50.1121 2850368 329.7149  36.9515  1.42202884165932
